GLOBALSTAR M035         
1 25851U 99037A   24160.34923734 -.00000072  00000+0 -31008-3 0  9992
2 25851  51.9909 168.6521 0013039  96.4945 276.9473 11.04530867 54954
GLOBALSTAR M032         
1 25852U 99037B   24160.33356935  .00000008  00000+0  24011-2 0  9997
2 25852  51.9981  19.6803 0009268 257.2835 102.6929 11.19054474 92939
GLOBALSTAR M051         
1 25853U 99037C   24160.54957289 -.00000016  00000+0  13888-2 0  9990
2 25853  51.9776 222.2415 0001495 252.2357 107.8290 11.42198869 89714
GLOBALSTAR M030         
1 25854U 99037D   24160.42591998 -.00000053  00000+0  46587-3 0  9993
2 25854  51.9898  52.4099 0004275  93.3681 266.7625 11.55095367106859
GLOBALSTAR M048         
1 25872U 99041A   24160.70771632 -.00000092  00000+0 -59775-3 0  9991
2 25872  51.9332 142.4502 0013713 259.6832 271.5879 11.33846802 82507
GLOBALSTAR M026         
1 25873U 99041B   24160.61056368 -.00000088  00000+0 -86990-3 0  9998
2 25873  52.0026 289.9610 0001003   6.8944   6.6303 11.06834163107124
GLOBALSTAR M043         
1 25874U 99041C   24160.53861277 -.00000107  00000+0 -11401-2 0  9999
2 25874  51.9389 235.6061 0012016  35.4351 104.5541 11.25679441 80791
GLOBALSTAR M028         
1 25875U 99041D   24160.58389000 -.00000044  00000+0  36473-3 0  9990
2 25875  51.9614 227.0630 0063018 340.1896  19.6520 12.50557170143435
